IRIDIUM 111             
1 41926U 17003K   25090.57914602  .00000004  00000+0 -55947-5 0  9992
2 41926  86.3905 273.2853 0001980  89.7100 270.4322 14.34217312429810
IRIDIUM 113             
1 42803U 17039A   25090.55911292  .00000569  00000+0  19597-3 0  9990
2 42803  86.3999 147.1987 0002542  90.9118 269.2369 14.34215680407744
IRIDIUM 123             
1 42804U 17039B   25090.60059082  .00000035  00000+0  55181-5 0  9996
2 42804  86.4045 178.6036 0001899  93.3822 266.7591 14.34217499406518
IRIDIUM 120             
1 42805U 17039C   25090.62253248  .00000457  00000+0  15606-3 0  9993
2 42805  86.3989 147.0124 0001954 101.9113 258.2302 14.34221050407744
IRIDIUM 115             
1 42806U 17039D   25090.57983178  .00000130  00000+0  32552-4 0  9998
2 42806  86.4527 147.0977 0001727  80.0921 280.0474 14.43271930410426
IRIDIUM 118             
1 42807U 17039E   25090.56253254  .00000384  00000+0  12996-3 0  9993
2 42807  86.4043 178.6195 0002296  95.6297 264.5160 14.34220652406500
IRIDIUM 117             
1 42808U 17039F   25090.51178920  .00000524  00000+0  18016-3 0  9990
2 42808  86.4044 178.6027 0002095  88.9988 271.1448 14.34221038406529
